NORAD_CAT_ID,OBJECT_NAME,OBJECT_TYPE,EPOCH,MEAN_MOTION,ECCENTRICITY,INCLINATION,RA_OF_ASC_NODE,ARG_OF_PERICENTER,MEAN_ANOMALY,BSTAR,MEAN_MOTION_DOT,MEAN_MOTION_DDOT,TLE_LINE0,TLE_LINE1,TLE_LINE2,SEMIMAJOR_AXIS,PERIOD,APOGEE,PERIGEE,DECAYED
53702.0,STARLINK-4724,PAYLOAD,2024-04-28 22:04:05,15.08834679,0.0001364,53.2167,40.6268,90.2098,269.9051,5.2615e-05,5.49e-06,0.0,0 STARLINK-4724,1 53702U 22107C   24119.91951098  .00000549  00000-0  52615-4 0  9999,2 53702  53.2167  40.6268 0001364  90.2098 269.9051 15.08834679 92476,6917.897,95.438,540.705,538.818,0.0
53702.0,STARLINK-4724,PAYLOAD,2024-04-29 01:14:51,15.08837929,0.0001468,53.2183,40.0301,90.8878,269.2283,9.1806e-05,1.173e-05,0.0,0 STARLINK-4724,1 53702U 22107C   24120.05198958  .00001173  00000-0  91806-4 0  9993,2 53702  53.2183  40.0301 0001468  90.8878 269.2283 15.08837929 91710,6917.887,95.438,540.767,538.736,0.0
53702.0,STARLINK-4724,PAYLOAD,2024-04-29 21:54:52,15.08840612,0.0001557,53.2179,36.1642,89.1869,270.9301,0.00023844,3.509e-05,0.0,0 STARLINK-4724,1 53702U 22107C   24120.91310951  .00003509  00000-0  23844-3 0  9998,2 53702  53.2179  36.1642 0001557  89.1869 270.9301 15.08840612 92623,6917.879,95.438,540.821,538.666,0.0
53702.0,STARLINK-4724,PAYLOAD,2024-04-30 04:16:24,15.08846478,0.0001509,53.2178,34.9754,87.8979,272.2186,0.00024087,3.548e-05,0.0,0 STARLINK-4724,1 53702U 22107C   24121.17806651  .00003548  00000-0  24087-3 0  9997,2 53702  53.2178  34.9754 0001509  87.8979 272.2186 15.08846478 91885,6917.861,95.437,540.769,538.682,0.0
53702.0,STARLINK-4724,PAYLOAD,2024-04-30 21:45:39,15.08850345,0.0001545,53.2179,31.7046,86.7945,273.3224,0.00019523,2.821e-05,0.0,0 STARLINK-4724,1 53702U 22107C   24121.90670150  .00002821  00000-0  19523-3 0  9993,2 53702  53.2179  31.7046 0001545  86.7945 273.3224 15.08850345 92778,6917.849,95.437,540.783,538.645,0.0
53702.0,STARLINK-4724,PAYLOAD,2024-05-01 10:28:43,15.08854614,0.0001237,53.2164,29.3278,72.6762,287.4365,0.000151,2.117e-05,0.0,0 STARLINK-4724,1 53702U 22107C   24122.43661499  .00002117  00000-0  15100-3 0  9993,2 53702  53.2164  29.3278 0001237  72.6762 287.4365 15.08854614 92079,6917.836,95.437,540.556,538.845,0.0
53702.0,STARLINK-4724,PAYLOAD,2024-05-01 18:25:39,15.08848013,0.0001465,53.218,27.8462,93.3613,266.7546,-9.9979e-06,-4.47e-06,0.0,0 STARLINK-4724,1 53702U 22107C   24122.76781687 -.00000447  00000-0 -99979-5 0  9995,2 53702  53.2180  27.8462 0001465  93.3613 266.7546 15.08848013 92126,6917.856,95.437,540.734,538.707,0.0
53702.0,STARLINK-4724,PAYLOAD,2024-05-02 10:19:30,15.08848037,0.000125,53.2182,24.8671,82.1385,277.9749,2.1138e-05,4.9e-07,0.0,0 STARLINK-4724,1 53702U 22107C   24123.43021636  .00000049  00000-0  21138-4 0  9998,2 53702  53.2182  24.8671 0001250  82.1385 277.9749 15.08848037 93004,6917.856,95.437,540.586,538.856,0.0
53702.0,STARLINK-4724,PAYLOAD,2024-05-03 02:13:22,15.08845316,0.0001264,53.2178,21.893,87.7428,272.3708,-3.7781e-05,-8.89e-06,0.0,0 STARLINK-4724,1 53702U 22107C   24124.09262078 -.00000889  00000-0 -37781-4 0  9993,2 53702  53.2178  21.8930 0001264  87.7428 272.3708 15.08845316 92323,6917.864,95.437,540.604,538.855,0.0
53702.0,STARLINK-4724,PAYLOAD,2024-05-03 10:10:18,15.08839526,0.0001232,53.2172,20.406,82.6106,277.5026,-1.3707e-05,-5.06e-06,0.0,0 STARLINK-4724,1 53702U 22107C   24124.42382412 -.00000506  00000-0 -13707-4 0  9993,2 53702  53.2172  20.4060 0001232  82.6106 277.5026 15.08839526 93156,6917.882,95.438,540.599,538.895,0.0
53702.0,STARLINK-4724,PAYLOAD,2024-05-03 21:18:00,15.08834915,0.0001301,53.2183,18.3248,90.7426,269.3716,7.9764e-05,9.82e-06,0.0,0 STARLINK-4724,1 53702U 22107C   24124.88750627  .00000982  00000-0  79764-4 0  9991,2 53702  53.2183  18.3248 0001301  90.7426 269.3716 15.08834915 92447,6917.896,95.438,540.661,538.861,0.0
53702.0,STARLINK-4724,PAYLOAD,2024-05-03 22:53:23,15.0884041,0.000126,53.2174,18.027,90.1383,269.9753,1.4488e-05,-5.7e-07,0.0,0 STARLINK-4724,1 53702U 22107C   24124.95374442 -.00000057  00000-0  14488-4 0  9992,2 53702  53.2174  18.0270 0001260  90.1383 269.9753 15.08840410 93231,6917.879,95.438,540.616,538.872,0.0
53702.0,STARLINK-4724,PAYLOAD,2024-05-04 02:04:09,15.08847083,0.0001076,53.2165,17.4328,103.3084,256.8028,8.6577e-05,1.091e-05,0.0,0 STARLINK-4724,1 53702U 22107C   24125.08621666  .00001091  00000-0  86577-4 0  9996,2 53702  53.2165  17.4328 0001076 103.3084 256.8028 15.08847083 92476,6917.859,95.437,540.468,538.979,0.0
53702.0,STARLINK-4724,PAYLOAD,2024-05-04 10:01:05,15.08834224,0.000159,53.2177,15.9465,83.576,276.5414,1.6315e-05,-2.8e-07,0.0,0 STARLINK-4724,1 53702U 22107C   24125.41743012 -.00000028  00000-0  16315-4 0  9996,2 53702  53.2177  15.9465 0001590  83.5760 276.5414 15.08834224 92522,6917.898,95.438,540.863,538.663,0.0
53702.0,STARLINK-4724,PAYLOAD,2024-05-05 00:19:34,15.08837785,0.0001295,53.2176,13.2705,91.7001,268.4139,7.2963e-05,8.73e-06,0.0,0 STARLINK-4724,1 53702U 22107C   24126.01359057  .00000873  00000-0  72963-4 0  9993,2 53702  53.2176  13.2705 0001295  91.7001 268.4139 15.08837785 93395,6917.887,95.438,540.648,538.856,0.0
53702.0,STARLINK-4724,PAYLOAD,2024-05-05 20:59:35,15.08840833,0.0001394,53.2178,9.4057,86.7344,273.3808,0.00011285,1.509e-05,0.0,0 STARLINK-4724,1 53702U 22107C   24126.87471083  .00001509  00000-0  11285-3 0  9997,2 53702  53.2178   9.4057 0001394  86.7344 273.3808 15.08840833 92742,6917.878,95.438,540.707,538.778,0.0
53702.0,STARLINK-4724,PAYLOAD,2024-05-05 22:34:57,15.08844425,0.0001276,53.2171,9.1062,90.8958,269.218,0.00015347,2.156e-05,0.0,0 STARLINK-4724,1 53702U 22107C   24126.94094722  .00002156  00000-0  15347-3 0  9998,2 53702  53.2171   9.1062 0001276  90.8958 269.2180 15.08844425 93530,6917.867,95.437,540.615,538.849,0.0
53702.0,STARLINK-4724,PAYLOAD,2024-05-06 09:42:39,15.08848974,0.0001251,53.2176,7.025,108.744,251.3688,8.4787e-05,1.062e-05,0.0,0 STARLINK-4724,1 53702U 22107C   24127.40462442  .00001062  00000-0  84787-4 0  9998,2 53702  53.2176   7.0250 0001251 108.7440 251.3688 15.08848974 92828,6917.853,95.437,540.583,538.853,0.0
53702.0,STARLINK-4724,PAYLOAD,2024-05-06 22:25:44,15.08852697,0.0001298,53.2166,4.6469,89.8197,270.2944,0.0002348,3.452e-05,0.0,0 STARLINK-4724,1 53702U 22107C   24127.93454491  .00003452  00000-0  23480-3 0  9998,2 53702  53.2166   4.6469 0001298  89.8197 270.2944 15.08852697 93688,6917.842,95.437,540.605,538.809,0.0
53702.0,STARLINK-4724,PAYLOAD,2024-05-07 01:36:30,15.08856198,0.0001312,53.2168,4.0514,92.3277,267.7866,0.00027355,4.07e-05,0.0,0 STARLINK-4724,1 53702U 22107C   24128.06702225  .00004070  00000-0  27355-3 0  9996,2 53702  53.2168   4.0514 0001312  92.3277 267.7866 15.08856198 93707,6917.831,95.437,540.603,538.788,0.0
53702.0,STARLINK-4724,PAYLOAD,2024-05-07 20:41:10,15.08820275,0.0001145,53.2167,0.4832,103.4623,256.6497,-0.00021295,-3.673e-05,0.0,0 STARLINK-4724,1 53702U 22107C   24128.86192547 -.00003673  00000-0 -21295-3 0  9991,2 53702  53.2167   0.4832 0001145 103.4623 256.6497 15.08820275 93043,6917.941,95.439,540.598,539.014,0.0
53702.0,STARLINK-4724,PAYLOAD,2024-05-08 14:10:25,15.08825537,7.5e-05,53.2179,357.2106,105.1494,254.9581,-8.7711e-05,-1.683e-05,0.0,0 STARLINK-4724,1 53702U 22107C   24129.59056815 -.00001683  00000-0 -87711-4 0  9994,2 53702  53.2179 357.2106 0000750 105.1494 254.9581 15.08825537 93938,6917.925,95.438,540.308,539.271,0.0
53702.0,STARLINK-4724,PAYLOAD,2024-05-08 20:31:56,15.08851039,0.0001596,53.2185,356.0235,95.4825,264.635,0.00029256,4.373e-05,0.0,0 STARLINK-4724,1 53702U 22107C   24129.85551771  .00004373  00000-0  29256-3 0  9990,2 53702  53.2185 356.0235 0001596  95.4825 264.6350 15.08851039 93199,6917.847,95.437,540.816,538.608,0.0
53702.0,STARLINK-4724,PAYLOAD,2024-05-08 22:07:19,15.08853853,0.0001473,53.2176,355.7269,89.9508,270.1652,0.00026061,3.864e-05,0.0,0 STARLINK-4724,1 53702U 22107C   24129.92175600  .00003864  00000-0  26061-3 0  9996,2 53702  53.2176 355.7269 0001473  89.9508 270.1652 15.08853853 93982,6917.838,95.437,540.722,538.684,0.0
53702.0,STARLINK-4724,PAYLOAD,2024-05-09 07:39:38,15.0885182,0.0001494,53.2173,353.9426,84.1557,275.9606,0.0002523,3.731e-05,0.0,0 STARLINK-4724,1 53702U 22107C   24130.31919722  .00003731  00000-0  25230-3 0  9992,2 53702  53.2173 353.9426 0001494  84.1557 275.9606 15.08851820 94040,6917.844,95.437,540.743,538.676,0.0
53702.0,STARLINK-4724,PAYLOAD,2024-05-09 20:22:44,15.08844037,0.0001572,53.2178,351.5642,105.1612,254.9554,0.00057833,8.929e-05,0.0,0 STARLINK-4724,1 53702U 22107C   24130.84912372  .00008929  00000-0  57833-3 0  9992,2 53702  53.2178 351.5642 0001572 105.1612 254.9554 15.08844037 93345,6917.868,95.437,540.821,538.646,0.0
53702.0,STARLINK-4724,PAYLOAD,2024-05-10 07:30:25,15.08852025,0.0001354,53.218,349.4837,88.7103,271.4044,0.00035163,5.314e-05,0.0,0 STARLINK-4724,1 53702U 22107C   24131.31279673  .00005314  00000-0  35163-3 0  9992,2 53702  53.2180 349.4837 0001354  88.7103 271.4044 15.08852025 94197,6917.844,95.437,540.645,538.772,0.0
53702.0,STARLINK-4724,PAYLOAD,2024-05-10 20:13:30,15.08844962,0.0001793,53.2184,347.1042,84.8698,275.2499,-7.9649e-05,-1.556e-05,0.0,0 STARLINK-4724,1 53702U 22107C   24131.84271920 -.00001556  00000-0 -79649-4 0  9991,2 53702  53.2184 347.1042 0001793  84.8698 275.2499 15.08844962 93496,6917.865,95.437,540.971,538.49,0.0
53702.0,STARLINK-4724,PAYLOAD,2024-05-10 21:48:53,15.08855444,0.0001314,53.218,346.8062,114.1296,245.9833,5.6814e-05,6.17e-06,0.0,0 STARLINK-4724,1 53702U 22107C   24131.90895166  .00000617  00000-0  56814-4 0  9996,2 53702  53.2180 346.8062 0001314 114.1296 245.9833 15.08855444 94281,6917.833,95.437,540.607,538.789,0.0
53702.0,STARLINK-4724,PAYLOAD,2024-05-10 23:24:16,15.08853443,0.0001493,53.2167,346.5076,77.0573,283.0586,3.5542e-05,2.78e-06,0.0,0 STARLINK-4724,1 53702U 22107C   24131.97519368  .00000278  00000-0  35542-4 0  9998,2 53702  53.2167 346.5076 0001493  77.0573 283.0586 15.08853443 93511,6917.839,95.437,540.737,538.671,0.0
